{
  "type": "FeatureCollection",
  "features": [
    {
      "type": "Feature",
      "properties": {
        "norad_id": 63130,
        "name": "COSMOS 2584 (704K)",
        "group": "gnss",
        "lat": 64.77931452187019,
        "lon": 177.20013781099865,
        "alt_km": 19133.32532890823,
        "timestamp": "2025-12-10T14:53:37.339749+00:00",
        "meta_object_name": "COSMOS 2584 (704K)",
        "meta_object_id": "2025-042A",
        "meta_epoch": "2025-12-08T03:39:29.178720",
        "meta_mean_motion": 2.13102925,
        "meta_eccentricity": 0.0007602,
        "meta_inclination": 64.9737,
        "meta_ra_of_asc_node": 79.3022,
        "meta_arg_of_pericenter": 215.9611,
        "meta_mean_anomaly": 144.0025,
        "meta_ephemeris_type": 0,
        "meta_classification_type": "U",
        "meta_norad_cat_id": 63130,
        "meta_element_set_no": 999,
        "meta_rev_at_epoch": 597,
        "meta_bstar": 0,
        "meta_mean_motion_dot": -1.2e-07,
        "meta_mean_motion_ddot": 0,
        "tle_line1": "1 63130U 25042A   25342.15242105 -.00000012  00000+0  00000+0 0  9994",
        "tle_line2": "2 63130  64.9737  79.3022 0007602 215.9611 144.0025  2.13102925  5976"
      },
      "geometry": {
        "type": "Point",
        "coordinates": [
          177.20013781099865,
          64.77931452187019
        ]
      }
    },
    {
      "type": "Feature",
      "properties": {
        "norad_id": 64202,
        "name": "GPS BIII-8  (PRN 21)",
        "group": "gnss",
        "lat": -0.013849846546998057,
        "lon": 38.73229051855299,
        "alt_km": 20174.468583065445,
        "timestamp": "2025-12-10T14:53:37.339762+00:00",
        "meta_object_name": "GPS BIII-8  (PRN 21)",
        "meta_object_id": "2025-116A",
        "meta_epoch": "2025-12-09T02:55:25.286016",
        "meta_mean_motion": 2.00558368,
        "meta_eccentricity": 0.00052634,
        "meta_inclination": 55.1032,
        "meta_ra_of_asc_node": 38.7868,
        "meta_arg_of_pericenter": 307.5072,
        "meta_mean_anomaly": 50.3343,
        "meta_ephemeris_type": 0,
        "meta_classification_type": "U",
        "meta_norad_cat_id": 64202,
        "meta_element_set_no": 999,
        "meta_rev_at_epoch": 405,
        "meta_bstar": 0,
        "meta_mean_motion_dot": -8.4e-07,
        "meta_mean_motion_ddot": 0,
        "tle_line1": "1 64202U 25116A   25343.12182044 -.00000084  00000+0  00000+0 0  9999",
        "tle_line2": "2 64202  55.1032  38.7868 0005263 307.5072  50.3343  2.00558368  4056"
      },
      "geometry": {
        "type": "Point",
        "coordinates": [
          38.73229051855299,
          -0.013849846546998057
        ]
      }
    },
    {
      "type": "Feature",
      "properties": {
        "norad_id": 65590,
        "name": "COSMOS 2596 (708K)",
        "group": "gnss",
        "lat": -28.510431057429567,
        "lon": 156.3900187968017,
        "alt_km": 19136.224091979457,
        "timestamp": "2025-12-10T14:53:37.339773+00:00",
        "meta_object_name": "COSMOS 2596 (708K)",
        "meta_object_id": "2025-206B",
        "meta_epoch": "2025-12-09T12:39:23.935968",
        "meta_mean_motion": 2.13100288,
        "meta_eccentricity": 0.00140016,
        "meta_inclination": 64.7457,
        "meta_ra_of_asc_node": 321.5852,
        "meta_arg_of_pericenter": 305.6143,
        "meta_mean_anomaly": 147.6816,
        "meta_ephemeris_type": 0,
        "meta_classification_type": "U",
        "meta_norad_cat_id": 65590,
        "meta_element_set_no": 999,
        "meta_rev_at_epoch": 187,
        "meta_bstar": 0,
        "meta_mean_motion_dot": -5.1e-07,
        "meta_mean_motion_ddot": 0,
        "tle_line1": "1 65590U 25206B   25343.52736037 -.00000051  00000+0  00000+0 0  9995",
        "tle_line2": "2 65590  64.7457 321.5852 0014001 305.6143 147.6816  2.13100288  1878"
      },
      "geometry": {
        "type": "Point",
        "coordinates": [
          156.3900187968017,
          -28.510431057429567
        ]
      }
    }
  ]
}